OBJECT_NAME,OBJECT_ID,EPOCH,MEAN_MOTION,ECCENTRICITY,INCLINATION,RA_OF_ASC_NODE,ARG_OF_PERICENTER,MEAN_ANOMALY,EPHEMERIS_TYPE,CLASSIFICATION_TYPE,NORAD_CAT_ID,ELEMENT_SET_NO,REV_AT_EPOCH,BSTAR,MEAN_MOTION_DOT,MEAN_MOTION_DDOT
SL-8 R/B,1985-006B,2026-07-17T21:59:46.972032,14.37846223,.00192589,74.0455,21.5127,264.1361,202.5717,0,U,15483,999,17274,.48777444E-4,.121E-5,0
SL-12 R/B(2),1985-042D,2026-07-17T10:21:29.445984,14.22011173,.00373708,71.1067,173.6165,282.9118,247.2895,0,U,15772,999,13283,.50830359E-4,.65E-6,0
SL-14 R/B,1985-069B,2026-07-17T22:20:47.556672,14.86536215,.00201755,82.5260,262.4532,118.7964,241.5282,0,U,15945,999,19218,.20483922E-4,.207E-5,0
SL-16 R/B,1985-097B,2026-07-17T13:57:25.217568,14.16613894,.00057484,71.0006,227.0885,46.8724,123.2991,0,U,16182,999,10562,.14089893E-3,.233E-5,0
SL-14 R/B,1986-006B,2026-07-17T20:55:26.895648,14.86969461,.00756934,82.5283,137.2391,199.9037,159.9225,0,U,16496,999,16855,.22029571E-4,.234E-5,0
COSMOS 1743,1986-034A,2026-07-17T15:27:28.622592,15.69808472,.00054358,82.5274,296.2815,169.5324,190.6052,0,U,16719,999,20056,.30668223E-3,.36664E-3,0
SL-14 R/B,1986-046B,2026-07-17T19:08:29.267808,14.85691657,.00237581,82.4840,317.2520,154.6068,205.6322,0,U,16792,999,14572,.24762565E-4,.24E-5,0
SL-14 R/B,1986-055B,2026-07-17T22:36:34.715808,14.85741345,.00173366,82.5206,4.2134,260.3761,260.4063,0,U,16882,999,13870,.20679315E-4,.204E-5,0
AJISAI (EGS),1986-061A,2026-07-17T23:47:39.969312,12.44516671,.00110795,50.0103,52.6732,259.0505,251.6566,0,U,16908,999,48422,.2052997E-4,-.94E-6,0
SL-14 R/B,1987-024B,2026-07-17T20:25:25.578336,14.86232852,.00180597,82.5300,330.4279,184.8363,175.2682,0,U,17567,999,10746,.24547175E-4,.241E-5,0
COSMOS 1833,1987-027A,2026-07-17T21:38:17.702592,14.13067239,.00244261,70.9212,52.3116,4.3674,355.7655,0,U,17589,999,2871,.45281777E-4,.37E-6,0
SL-16 R/B,1987-027B,2026-07-17T22:05:05.912448,14.17174446,.00071651,71.0035,2.0631,278.8763,81.1549,0,U,17590,999,3379,.12420273E-3,.203E-5,0
SL-14 R/B,1987-038B,2026-07-17T21:54:42.717888,14.85462464,.00208785,82.5014,174.1301,93.9047,266.4557,0,U,17912,999,9856,.20166139E-4,.199E-5,0
COSMOS 1844,1987-041A,2026-07-17T22:31:06.726720,14.14581218,.00311547,70.8999,119.4441,191.3295,168.7130,0,U,17973,999,2200,.2961238E-4,.9E-7,0
SL-14 R/B,1987-055B,2026-07-17T19:11:18.177216,14.85727796,.00192711,82.4969,226.3697,305.9625,53.9803,0,U,18153,999,8925,.15580741E-4,.16E-5,0
COSMOS 1867,1987-060A,2026-07-17T07:30:53.234496,14.31518644,.00172072,65.0118,303.6888,281.9962,77.9194,0,U,18187,999,3849,.12000735E-4,-.68E-6,0
SL-14 R/B,1988-001B,2026-07-17T14:26:23.093088,14.85627550,.00183467,82.5117,73.1581,163.9409,196.2393,0,U,18749,999,6131,.19106845E-4,.19E-5,0
COSMOS 1933,1988-020A,2026-07-17T20:53:50.997696,15.18899376,.00058973,82.5141,122.0482,100.5626,259.6273,0,U,18958,999,6998,.95791924E-4,.203E-4,0
SL-3 R/B,1988-032B,2026-07-17T21:38:11.859360,15.21043181,.0026734,97.5277,181.9187,136.6501,223.6844,0,U,19046,999,7189,.98673882E-4,.2139E-4,0
SL-16 R/B,1988-039B,2026-07-17T21:54:24.712128,14.19631381,.00204876,71.0141,153.1885,145.0099,215.2377,0,U,19120,999,97686,.66876984E-4,.94E-6,0
COSMOS 1953,1988-050A,2026-07-17T22:48:00.616896,15.30358848,.00112549,82.5066,26.9989,31.0906,329.0998,0,U,19210,999,5769,.13545066E-3,.4017E-4,0
SL-8 R/B,1988-053B,2026-07-17T13:04:42.091104,14.38978982,.001982,74.0455,233.0974,17.9526,142.4432,0,U,19257,999,99527,.41895E-4,.103E-5,0
COSMOS 1975,1988-093A,2026-07-17T21:39:57.524832,15.29681416,.00124225,82.5207,346.7944,74.0867,286.1741,0,U,19573,999,3930,.12886735E-3,.3747E-4,0
SL-14 R/B,1988-093B,2026-07-17T15:58:10.348320,14.85760868,.00198077,82.5314,280.0331,331.8713,190.3426,0,U,19574,999,2031,.19142357E-4,.191E-5,0
SL-16 R/B,1988-102B,2026-07-17T12:27:44.318880,14.16166647,.0014174,70.9974,238.3168,181.8473,178.2601,0,U,19650,999,94527,.34789E-4,.21E-6,0
INTERCOSMOS 24,1989-080A,2026-07-17T21:50:38.861664,12.59692644,.1187038,82.6053,19.6465,350.6439,7.4164,0,U,20261,999,68319,.28732537E-4,.11E-5,0
SL-14 R/B,1989-080C,2026-07-17T15:25:33.089376,12.50578764,.1228783,82.5932,89.7393,247.6901,98.9597,0,U,20262,999,67639,.16483E-4,.58E-6,0
DELTA 1 R/B,1989-089B,2026-07-17T18:34:35.027328,14.50748611,.00706013,97.0636,25.4375,72.0096,288.8781,0,U,20323,999,91459,.34480856E-4,.105E-5,0
ARIANE 40 R/B,1990-005H,2026-07-17T13:11:53.498400,14.39941317,.0010431,98.2943,255.2193,167.1178,193.0279,0,U,20443,999,91149,.40066E-4,.84E-6,0
DELTA 2 R/B(1),1990-008B,2026-07-17T21:01:23.631744,15.74039137,.00576935,35.5993,29.5617,41.6302,318.8812,0,U,20453,999,94653,.53986858E-3,.89709E-3,0
