SL-8 R/B                
1 15483U 85006B   26198.91651588  .00000121  00000+0  48777-4 0  9999
2 15483  74.0455  21.5127 0019258 264.1361 202.5717 14.37846223172749
SL-12 R/B(2)            
1 15772U 85042D   26198.43159081  .00000065  00000+0  50830-4 0  9998
2 15772  71.1067 173.6165 0037370 282.9118 247.2895 14.22011173132832
SL-14 R/B               
1 15945U 85069B   26198.93110598  .00000207  00000+0  20484-4 0  9994
2 15945  82.5260 262.4532 0020175 118.7964 241.5282 14.86536215192180
SL-16 R/B               
1 16182U 85097B   26198.58154187  .00000233  00000+0  14090-3 0  9996
2 16182  71.0006 227.0885 0005748  46.8724 123.2991 14.16613894105625
SL-14 R/B               
1 16496U 86006B   26198.87183907  .00000234  00000+0  22030-4 0  9994
2 16496  82.5283 137.2391 0075693 199.9037 159.9225 14.86969461168552
COSMOS 1743             
1 16719U 86034A   26198.64408128  .00036664  00000+0  30668-3 0  9994
2 16719  82.5274 296.2815 0005435 169.5324 190.6052 15.69808472200560
SL-14 R/B               
1 16792U 86046B   26198.79756097  .00000240  00000+0  24763-4 0  9996
2 16792  82.4840 317.2520 0023758 154.6068 205.6322 14.85691657145729
SL-14 R/B               
1 16882U 86055B   26198.94206847  .00000204  00000+0  20679-4 0  9998
2 16882  82.5206   4.2134 0017336 260.3761 260.4063 14.85741345138701
AJISAI (EGS)            
1 16908U 86061A   26198.99143483 -.00000094  00000+0  20530-4 0  9999
2 16908  50.0103  52.6732 0011079 259.0505 251.6566 12.44516671484222
SL-14 R/B               
1 17567U 87024B   26198.85099049  .00000241  00000+0  24547-4 0  9999
2 17567  82.5300 330.4279 0018059 184.8363 175.2682 14.86232852107460
COSMOS 1833             
1 17589U 87027A   26198.90159378  .00000037  00000+0  45282-4 0  9996
2 17589  70.9212  52.3116 0024426   4.3674 355.7655 14.13067239 28713
SL-16 R/B               
1 17590U 87027B   26198.92020732  .00000203  00000+0  12420-3 0  9993
2 17590  71.0035   2.0631 0007165 278.8763  81.1549 14.17174446 33791
SL-14 R/B               
1 17912U 87038B   26198.91299442  .00000199  00000+0  20166-4 0  9999
2 17912  82.5014 174.1301 0020878  93.9047 266.4557 14.85462464 98563
COSMOS 1844             
1 17973U 87041A   26198.93827230  .00000009  00000+0  29612-4 0  9999
2 17973  70.8999 119.4441 0031154 191.3295 168.7130 14.14581218 22004
SL-14 R/B               
1 18153U 87055B   26198.79951594  .00000160  00000+0  15581-4 0  9998
2 18153  82.4969 226.3697 0019271 305.9625  53.9803 14.85727796 89251
COSMOS 1867             
1 18187U 87060A   26198.31311614 -.00000068  00000+0  12001-4 0  9994
2 18187  65.0118 303.6888 0017207 281.9962  77.9194 14.31518644 38496
SL-14 R/B               
1 18749U 88001B   26198.60165617  .00000190  00000+0  19107-4 0  9995
2 18749  82.5117  73.1581 0018346 163.9409 196.2393 14.85627550 61311
COSMOS 1933             
1 18958U 88020A   26198.87072914  .00002030  00000+0  95792-4 0  9993
2 18958  82.5141 122.0482 0005897 100.5626 259.6273 15.18899376 69985
SL-3 R/B                
1 19046U 88032B   26198.90152615  .00002139  00000+0  98674-4 0  9998
2 19046  97.5277 181.9187 0026734 136.6501 223.6844 15.21043181 71898
SL-16 R/B               
1 19120U 88039B   26198.91278602  .00000094  00000+0  66877-4 0  9992
2 19120  71.0141 153.1885 0020487 145.0099 215.2377 14.19631381976869
COSMOS 1953             
1 19210U 88050A   26198.95000714  .00004017  00000+0  13545-3 0  9998
2 19210  82.5066  26.9989 0011254  31.0906 329.0998 15.30358848 57699
SL-8 R/B                
1 19257U 88053B   26198.54493161  .00000103  00000+0  41895-4 0  9991
2 19257  74.0455 233.0974 0019820  17.9526 142.4432 14.38978982995270
COSMOS 1975             
1 19573U 88093A   26198.90274913  .00003747  00000+0  12887-3 0  9993
2 19573  82.5207 346.7944 0012422  74.0867 286.1741 15.29681416 39308
SL-14 R/B               
1 19574U 88093B   26198.66539755  .00000191  00000+0  19142-4 0  9997
2 19574  82.5314 280.0331 0019807 331.8713 190.3426 14.85760868 20313
SL-16 R/B               
1 19650U 88102B   26198.51926295  .00000021  00000+0  34789-4 0  9992
2 19650  70.9974 238.3168 0014174 181.8473 178.2601 14.16166647945273
INTERCOSMOS 24          
1 20261U 89080A   26198.91017201  .00000110  00000+0  28733-4 0  9991
2 20261  82.6053  19.6465 1187038 350.6439   7.4164 12.59692644683193
SL-14 R/B               
1 20262U 89080C   26198.64274409  .00000058  00000+0  16483-4 0  9997
2 20262  82.5932  89.7393 1228783 247.6901  98.9597 12.50578764676395
DELTA 1 R/B             
1 20323U 89089B   26198.77401652  .00000105  00000+0  34481-4 0  9991
2 20323  97.0636  25.4375 0070601  72.0096 288.8781 14.50748611914594
ARIANE 40 R/B           
1 20443U 90005H   26198.54992475  .00000084  00000+0  40066-4 0  9999
2 20443  98.2943 255.2193 0010431 167.1178 193.0279 14.39941317911494
DELTA 2 R/B(1)          
1 20453U 90008B   26198.87596796  .00089709  00000+0  53987-3 0  9991
2 20453  35.5993  29.5617 0057693  41.6302 318.8812 15.74039137946534
